#dP2018  6 29  0  0  0.00000000      96 __u+U IGS08 FIT  IAC
## 2007 432000.00000000   900.00000000 58298 0.0000000000000
+   84   C01C02C03C05C06C07C08C09C10C11C12C13C14E01E02E03E04
+        E05E07E08E09E11E12E14E18E19E24E26E30G01G02G03G05G06
+        G07G08G09G10G11G12G13G14G15G16G17G18G19G20G21G22G23
+        G24G25G26G27G28G29G30G31G32J01R01R02R03R04R05R07R08
+        R09R10R11R13R14R15R16R17R18R19R20R21R22R23R24R26  0
++        14 12 13 12  9  8  9  9  8  7  7  8  7  7  8  7  7
++         7  7  8  8  8  8  8  8  8  7  8  7  6  6  6  3  6
++         3  6  6  6  6  3  6  6  3  6  3  6  6  3  6  6  4
++         3  3  3  3  4  6  6  3  3  9  5  5  5  5  6  5  5
++         7  5  7  7  5  5  7  5  5  5  5  5  5  5  5  8  0
%c M  cc GPS ccc cccc cccc cccc cccc ccccc ccccc ccccc ccccc
%c cc cc ccc ccc cccc cccc cccc cccc ccccc ccccc ccccc ccccc
%f  1.2500000  1.025000000  0.00000000000  0.000000000000000
%f  0.0000000  0.000000000  0.00000000000  0.000000000000000
%i    0    0    0    0      0      0      0      0         0
%i    0    0    0    0      0      0      0      0         0
/* INFORMATION & ANALYSIS CENTER (IAC)            FINAL DATA
/* S/V CLOCKS ARE ALIGNED TO GPS & GLONASS TIME RESPECTIVELY
/* USING THE BROADCAST EPHEMERIS                            
/* PCV:IGS14_2000 OL/AL:FES2004  NONE     YN ORB:CoN CLK:CoN
*  2018 06 29  3  0  0.00000000
PC01 -32251.123460  27115.200286   1092.193428    273.240083
PC02   4414.031915  41925.287895   -788.950427    111.650458
PC03 -14804.318226  39454.276619    821.053048    338.880312
PC05  21922.116675  35995.203212   -716.327939    336.017194
PC06  -7723.704172  25939.823581 -31975.930035     74.538859
PC07 -23805.502858  25268.140472  23721.715852     89.138058
PC08 -16479.500590  38237.440919   7470.524075    413.603089
PC09   5343.811051  33676.955837 -24400.743154      4.239705
PC10  -6533.019078  26971.118004  31766.583630   -345.941149
PC11  -9663.229185 -25076.451777   7429.321094   -569.440922
PC12   2586.668894 -25371.321079 -11173.176653    495.347871
PC13  -8430.386105  41134.623405  -5062.281426   -397.297778
PC14 -14688.062632 -17148.256382  16495.745289    152.835748
PE01  22373.067130   4733.244215  18798.828096   -379.236017
PE02 -22383.416725  -4720.020168 -18786.741708     17.674848
PE03 -24442.396052 -16016.708100  -4665.238343    -48.674737
PE04  21820.094045   -379.523864  20009.344427    -64.633609
PE05 -12748.928497 -23080.547905  13461.730388    237.694121
PE07  -6351.215036  16618.220716 -23642.218852      7.061144
PE08 -21736.247658    477.120580 -20069.846559   6554.645231
PE09   6171.538733 -16540.357214  23772.266081   6749.775666
PE11   9556.361553 -26955.571734  -7682.908365   1772.514152
PE12  16715.415111 -10324.174853 -22146.704282   4486.940465
PE14   2701.212057  23226.635032   7967.438248   6559.501944
PE18   5570.412246 -25699.389635 -17900.850930   6097.825207
PE19  23976.590429  17104.351123   2939.509833     23.700802
PE24  17214.087420 -17737.697663 -16291.854769   6628.268755
PE26   2798.527400  27462.122373 -10688.376350   5768.672561
PE30 -28094.920691   9156.908537  -1734.994532   5720.228123
PG01 -13435.023861  22640.736563  -2023.425938    -60.724995
PG02  18480.928987  -8628.066743 -16325.325173     72.462809
PG03 -11118.185138  13382.422277 -20072.267411     97.191251
PG05  25999.970584  -2755.123639   5182.957224     -5.401763
PG06  13251.937505   7036.690573 -21886.180130    391.998988
PG07  -1294.005698  21354.813616  15658.323388    167.531452
PG08 -10451.392478  11784.436174  21405.439941   -106.407023
PG09   6431.360608  24556.080677  -7820.776862    514.380560
PG10 -19443.492911 -11168.097185  14404.788632    188.776663
PG11  -9323.888780  23808.001144   6933.595675   -732.180903
PG12  15803.056124 -10514.418529 -18688.126245    324.361603
PG13  14953.147469  -2543.044277  21696.379335    -93.021524
PG14 -17066.169399 -12570.269800 -15812.144112    -97.527928
PG15   8685.188913 -14644.854952  20084.655987   -351.771542
PG16 -26345.973832   -656.864050   4624.466193     19.723438
PG17  14878.668679  20359.805288  -8144.998312    -83.500693
PG18 -16843.050976  19236.127757   6371.195465     27.355320
PG19  16648.716861  13250.930874 -16088.111967   -424.657514
PG20 -10464.955550 -14244.582910  19731.248772    511.450271
PG21  -3337.399098 -19969.812232  18004.182659   -374.868539
PG22 -19036.768338  11035.914059 -14620.553645   -441.218866
PG23  -3211.672019  20014.706317 -16643.368783   -215.241638
PG24  14797.651419 -21755.287862   2071.164823    -51.853115
PG25    145.714429 -15026.817322 -22087.077706   -608.165881
PG26 -25478.727981  -5127.556646  -5823.467397   -100.436157
PG27 -16414.803156  -1350.417702  20812.127832    363.784156
PG28  15853.790514  13665.691551  16940.439955    727.342228
PG29  -3353.073876 -24470.682337  -9807.019045    424.106895
PG30   7179.549897  15274.401346  20483.563298     56.896046
PG31 -14688.679240  -5135.455704 -21532.237524    111.336075
PG32 -16284.986830 -19425.736095  -8039.485732   -485.458341
PJ01 -29877.824286  16949.861399 -19749.910125   -200.550946
PR01  16356.847594  -1835.353787  19501.466664     28.330483
PR02  -2207.549154 -13132.052263  21810.073225    317.121973
PR03 -17598.959192 -15483.797200  10154.612628    136.281512
PR04 -22740.799433  -8481.965462  -7849.178152    266.565918
PR05 -14661.509804   3387.562341 -20595.539268    -31.819530
PR07  17879.020041  15378.823549  -9638.092558    -41.184103
PR08  22790.690567   8835.005613   7347.172643     22.507141
PR09  -9678.108370  15491.244046  17783.540258     15.515512
PR10   6945.912784   8254.303890  23096.913884     26.908024
PR11  20495.977684  -3728.413306  14769.487751    -32.962867
PR13   9631.859471 -15521.577662 -17828.276948    -11.926886
PR14  -6857.618267  -8597.868276 -23004.091573     28.596232
PR15 -18288.737889   1096.621583 -17787.162515    -12.405586
PR16 -21595.490996  13641.566408   1020.510195     95.867976
PR17  -5624.826239 -21766.527215  12024.963627    143.841804
PR18 -10222.444429  -6884.287886  22351.633884    201.009390
PR19  -9412.540630  12032.434333  20421.913701    -55.573582
PR20  -2863.966361  24736.394962   5408.824634   -343.299080
PR21   5739.895127  21585.082172 -12346.373162      9.685069
PR22  10373.474013   4430.432579 -22866.292814    -54.596715
PR23   8231.838714 -15885.686652 -18195.579536    162.587694
PR24   1989.957592 -25053.112679  -4448.355503   -168.213514
PR26  -2797.753446  24570.791075   6306.254201     30.050480
EOF
